[{"OBJECT_NAME":"STARLINK-33848","OBJECT_ID":"2025-087J","EPOCH":"2026-03-09T16:50:27.210912","MEAN_MOTION":15.30196042,"ECCENTRICITY":0.00010068,"INCLINATION":53.1578,"RA_OF_ASC_NODE":219.3476,"ARG_OF_PERICENTER":66.2696,"MEAN_ANOMALY":293.8411,"EPHEMERIS_TYPE":0,"CLASSIFICATION_TYPE":"U","NORAD_CAT_ID":63705,"ELEMENT_SET_NO":999,"REV_AT_EPOCH":4919,"BSTAR":0.0010966117,"MEAN_MOTION_DOT":0.00032256,"MEAN_MOTION_DDOT":0},{"OBJECT_NAME":"TRANSPORTER-1 OBJECT Z","OBJECT_ID":"2021-006Z","EPOCH":"2026-03-09T22:55:57.522432","MEAN_MOTION":15.30965056,"ECCENTRICITY":0.00100878,"INCLINATION":97.2377,"RA_OF_ASC_NODE":113.4736,"ARG_OF_PERICENTER":179.6869,"MEAN_ANOMALY":180.438,"EPHEMERIS_TYPE":0,"CLASSIFICATION_TYPE":"U","NORAD_CAT_ID":47436,"ELEMENT_SET_NO":999,"REV_AT_EPOCH":28420,"BSTAR":0.00024088983,"MEAN_MOTION_DOT":7.143e-5,"MEAN_MOTION_DDOT":0}]
